{
  "norad_id": 67357,
  "name": "STARLINK-36456",
  "history": [
    {
      "epoch": "2026-03-28T18:45:49.461408",
      "apogee_km": 483.68935611609777,
      "perigee_km": 482.33798388013565,
      "latitude_deg": -15.697932181191545,
      "longitude_deg": -89.24504288006574,
      "semi_major_axis_km": 6861.150669998116,
      "eccentricity": 9.848e-05,
      "inclination_deg": 43.0002,
      "raan_deg": 119.2506,
      "arg_perigee_deg": 276.6908,
      "mean_anomaly_deg": 83.3832,
      "mean_motion_rev_day": 15.27591831
    }
  ]
}