{"fetched_at":"2026-03-29T16:36:15Z","count":15609,"tles":[{"name":"STARLINK-36456","line1":"1 67357U 26003Z   26087.78182247  .00027707  00000+0  10122-2 0  9991","line2":"2 67357  43.0002 119.2506 0000984 276.6908  83.3832 15.27591831 11744","category":"Starlink"}]}